COSMOS 2058             
1 20465U 90010A   26199.70091320  .00001845  00000+0  10522-3 0  9996
2 20465  82.4675 278.2742 0008197 235.1988 124.8472 15.12168441962035
SL-14 R/B               
1 20466U 90010B   26199.86591994  .00000192  00000+0  20271-4 0  9993
2 20466  82.5037 144.1958 0018589 224.2861 135.6868 14.83664237947936
SL-14 R/B               
1 20511U 90018B   26199.80750776  .00000197  00000+0  21732-4 0  9999
2 20511  82.5214 100.5538 0016750  25.5795 334.6245 14.82235375942009
HST                     
1 20580U 90037B   26199.75945339  .00002987  00000+0  89242-4 0  9990
2 20580  28.4721 224.7316 0002157 138.2222 221.8539 15.31081460793414
SL-16 R/B               
1 20625U 90046B   26199.90061524  .00000295  00000+0  17681-3 0  9999
2 20625  70.9992  22.3407 0012306 107.7510 252.4957 14.15027085866955
COSMOS 2084             
1 20663U 90055A   26199.86284197  .00000703  00000+0  61531-4 0  9997
2 20663  62.7878 247.9670 0008530 321.6867  38.3626 15.06230761956077
SL-6 R/B(2)             
1 20666U 90055D   26199.36381894  .00000983  00000+0  83887-4 0  9995
2 20666  62.7806 169.2767 0045631   9.4180 350.7764 15.04095535957842
SL-8 R/B                
1 20775U 90078B   26199.89352393  .00007612  00000+0  21559-3 0  9994
2 20775  82.9033 132.9627 0343110 290.9416  65.5404 14.93635955828856
SL-8 R/B                
1 21088U 91006B   26199.94031333  .00000073  00000+0  58082-4 0  9994
2 21088  82.9404  72.4091 0023223  30.4182 340.3615 13.77509734782141
OKEAN-3                 
1 21397U 91039A   26199.31295503  .00001743  00000+0  11931-3 0  9991
2 21397  82.5147 210.1943 0012685 242.6649 117.3287 15.05445294884688
COSMOS 2151             
1 21422U 91042A   26199.86940496  .00000970  00000+0  74783-4 0  9998
2 21422  82.4983 317.1053 0011615 342.7086  17.3741 15.00519037882867
SL-14 R/B               
1 21423U 91042B   26199.75327131  .00000164  00000+0  17670-4 0  9999
2 21423  82.4930  97.2949 0017297 165.3090 194.8630 14.81919130872487
ERS-1                   
1 21574U 91050A   26199.30406798  .00000186  00000+0  73885-4 0  9997
2 21574  98.7796 220.7620 0032093 172.6051 187.5616 14.39534846834528
ARIANE 40 R/B           
1 21610U 91050F   26199.73842126  .00000091  00000+0  39496-4 0  9999
2 21610  98.1860 246.9236 0004009  53.5902 306.5659 14.42972912837893
INTERCOSMOS 25          
1 21819U 91086A   26199.80769124  .00000281  00000+0  52111-4 0  9993
2 21819  82.6002 230.6750 1484756 194.1302 161.3537 12.12241798512572
SL-8 R/B                
1 21876U 92008B   26199.89644206  .00000103  00000+0  90021-4 0  9998
2 21876  82.9275 170.2119 0035847 126.5674 262.4644 13.75984397727468
SL-8 R/B                
1 21938U 92020B   26199.90363931 -.00000007  00000+0 -22753-4 0  9998
2 21938  82.9277  56.2947 0027840 292.7228  77.9407 13.75549946719178
USA 81                  
1 21949U 92023A   26199.84978568  .00000082  00000+0  22870-4 0  9995
2 21949  85.0048  55.7280 0001822  65.0944 295.0438 14.32405478113565
COSMOS 2219             
1 22219U 92076A   26199.88087091 -.00000264  00000+0 -11362-3 0  9997
2 22219  71.0609 103.8193 0018475 351.9675   8.1149 14.14107316736925
SL-16 R/B               
1 22220U 92076B   26199.30624914 -.00000046  00000+0  80149-6 0  9996
2 22220  71.0002 273.2281 0015035 258.2455 168.0621 14.16878055740336
COSMOS 2221             
1 22236U 92080A   26199.89805313  .00000823  00000+0  69794-4 0  9999
2 22236  82.5048 153.3830 0015890 108.8842 251.4105 14.96609700800414
SL-16 R/B               
1 22285U 92093B   26199.97299327 -.00000260  00000+0 -10903-3 0  9992
2 22285  71.0214  88.6649 0002173 123.6613 236.4718 14.15464299731739
COSMOS 2228             
1 22286U 92094A   26199.89091400  .00000870  00000+0  71827-4 0  9995
2 22286  82.5186 111.6755 0016587 215.8503 144.1608 14.97681765795693
SL-16 R/B               
1 22566U 93016B   26199.74440889  .00000296  00000+0  17643-3 0  9991
2 22566  71.0087 299.9262 0008682 131.6460 228.5407 14.15314699720718
COSMOS 2242             
1 22626U 93024A   26199.86493236  .00000841  00000+0  70704-4 0  9998
2 22626  82.5200 141.2361 0014880 219.2098 140.8048 14.96990796800011
SL-16 R/B               
1 22803U 93059B   26199.89812411  .00000112  00000+0  79339-4 0  9990
2 22803  70.9901  94.4320 0016865   3.0416 357.0807 14.17249644698123
ARIANE 40 R/B           
1 22830U 93061H   26199.76760725  .00000053  00000+0  35162-4 0  9999
2 22830  98.4803 265.9663 0009546 253.8815 106.1318 14.32919285712871
COSMOS 2278             
1 23087U 94023A   26199.86000575  .00000136  00000+0  95532-4 0  9993
2 23087  71.0518 260.6582 0009440 200.1082 159.9671 14.14394101663352
SL-16 R/B               
1 23088U 94023B   26199.91830667  .00000276  00000+0  16725-3 0  9994
2 23088  70.9990 155.2929 0001325 113.6291 246.4971 14.15026285664658
SL-16 R/B               
1 23343U 94074B   26199.54533031  .00000159  00000+0  27855-4 0  9995
2 23343  97.6986 224.9583 0007406 144.5054   8.1125 14.79525915706597
