OBJECT_NAME,OBJECT_ID,EPOCH,MEAN_MOTION,ECCENTRICITY,INCLINATION,RA_OF_ASC_NODE,ARG_OF_PERICENTER,MEAN_ANOMALY,EPHEMERIS_TYPE,CLASSIFICATION_TYPE,NORAD_CAT_ID,ELEMENT_SET_NO,REV_AT_EPOCH,BSTAR,MEAN_MOTION_DOT,MEAN_MOTION_DDOT
COSMOS 2058,1990-010A,2026-07-18T16:49:18.900480,15.12168441,.00081978,82.4675,278.2742,235.1988,124.8472,0,U,20465,999,96203,.10521992E-3,.1845E-4,0
SL-14 R/B,1990-010B,2026-07-18T20:46:55.482816,14.83664237,.00185891,82.5037,144.1958,224.2861,135.6868,0,U,20466,999,94793,.20271409E-4,.192E-5,0
SL-14 R/B,1990-018B,2026-07-18T19:22:48.670464,14.82235375,.00167501,82.5214,100.5538,25.5795,334.6245,0,U,20511,999,94200,.21731544E-4,.197E-5,0
HST,1990-037B,2026-07-18T18:13:36.772896,15.31081460,.00021575,28.4721,224.7316,138.2222,221.8539,0,U,20580,999,79341,.89242238E-4,.2987E-4,0
SL-16 R/B,1990-046B,2026-07-18T21:36:53.156736,14.15027085,.00123063,70.9992,22.3407,107.7510,252.4957,0,U,20625,999,86695,.17680702E-3,.295E-5,0
COSMOS 2084,1990-055A,2026-07-18T20:42:29.546208,15.06230761,.00085305,62.7878,247.9670,321.6867,38.3626,0,U,20663,999,95607,.61531264E-4,.703E-5,0
SL-6 R/B(2),1990-055D,2026-07-18T08:43:53.956416,15.04095535,.00456318,62.7806,169.2767,9.4180,350.7764,0,U,20666,999,95784,.83887169E-4,.983E-5,0
SL-8 R/B,1990-078B,2026-07-18T21:26:40.467552,14.93635955,.03431107,82.9033,132.9627,290.9416,65.5404,0,U,20775,999,82885,.21558557E-3,.7612E-4,0
SL-8 R/B,1991-006B,2026-07-18T22:34:03.071712,13.77509734,.00232238,82.9404,72.4091,30.4182,340.3615,0,U,21088,999,78214,.58081964E-4,.73E-6,0
OKEAN-3,1991-039A,2026-07-18T07:30:39.314592,15.05445294,.00126859,82.5147,210.1943,242.6649,117.3287,0,U,21397,999,88468,.11930893E-3,.1743E-4,0
COSMOS 2151,1991-042A,2026-07-18T20:51:56.588544,15.00519037,.00116151,82.4983,317.1053,342.7086,17.3741,0,U,21422,999,88286,.74783065E-4,.97E-5,0
SL-14 R/B,1991-042B,2026-07-18T18:04:42.641184,14.81919130,.00172975,82.4930,97.2949,165.3090,194.8630,0,U,21423,999,87248,.17670101E-4,.164E-5,0
ERS-1,1991-050A,2026-07-18T07:17:51.473472,14.39534846,.00320938,98.7796,220.7620,172.6051,187.5616,0,U,21574,999,83452,.7388501E-4,.186E-5,0
ARIANE 40 R/B,1991-050F,2026-07-18T17:43:19.596864,14.42972912,.00040098,98.1860,246.9236,53.5902,306.5659,0,U,21610,999,83789,.39495707E-4,.91E-6,0
INTERCOSMOS 25,1991-086A,2026-07-18T19:23:04.523136,12.12241798,.14847567,82.6002,230.6750,194.1302,161.3537,0,U,21819,999,51257,.52110656E-4,.281E-5,0
SL-8 R/B,1992-008B,2026-07-18T21:30:52.593984,13.75984397,.00358475,82.9275,170.2119,126.5674,262.4644,0,U,21876,999,72746,.90020913E-4,.103E-5,0
SL-8 R/B,1992-020B,2026-07-18T21:41:14.436384,13.75549946,.00278405,82.9277,56.2947,292.7228,77.9407,0,U,21938,999,71917,-.22753377E-4,-.7E-7,0
USA 81,1992-023A,2026-07-18T20:23:41.482752,14.32405478,.00018225,85.0048,55.7280,65.0944,295.0438,0,U,21949,999,11356,.22870204E-4,.82E-6,0
COSMOS 2219,1992-076A,2026-07-18T21:08:27.246624,14.14107316,.0018475,71.0609,103.8193,351.9675,8.1149,0,U,22219,999,73692,-.11362169E-3,-.264E-5,0
SL-16 R/B,1992-076B,2026-07-18T07:20:59.925696,14.16878055,.00150351,71.0002,273.2281,258.2455,168.0621,0,U,22220,999,74033,.801488E-6,-.46E-6,0
COSMOS 2221,1992-080A,2026-07-18T21:33:11.790432,14.96609700,.00158902,82.5048,153.3830,108.8842,251.4105,0,U,22236,999,80041,.69794417E-4,.823E-5,0
SL-16 R/B,1992-093B,2026-07-18T23:21:06.618528,14.15464299,.00021734,71.0214,88.6649,123.6613,236.4718,0,U,22285,999,73173,-.10902553E-3,-.26E-5,0
COSMOS 2228,1992-094A,2026-07-18T21:22:54.969600,14.97681765,.00165877,82.5186,111.6755,215.8503,144.1608,0,U,22286,999,79569,.71826923E-4,.87E-5,0
SL-16 R/B,1993-016B,2026-07-18T17:51:56.928096,14.15314699,.00086828,71.0087,299.9262,131.6460,228.5407,0,U,22566,999,72071,.17642593E-3,.296E-5,0
COSMOS 2242,1993-024A,2026-07-18T20:45:30.155904,14.96990796,.00148806,82.5200,141.2361,219.2098,140.8048,0,U,22626,999,80001,.70703508E-4,.841E-5,0
SL-16 R/B,1993-059B,2026-07-18T21:33:17.923104,14.17249644,.0016865,70.9901,94.4320,3.0416,357.0807,0,U,22803,999,69812,.79339473E-4,.112E-5,0
ARIANE 40 R/B,1993-061H,2026-07-18T18:25:21.266400,14.32919285,.00095468,98.4803,265.9663,253.8815,106.1318,0,U,22830,999,71287,.35161635E-4,.53E-6,0
COSMOS 2278,1994-023A,2026-07-18T20:38:24.496800,14.14394101,.00094403,71.0518,260.6582,200.1082,159.9671,0,U,23087,999,66335,.9553244E-4,.136E-5,0
SL-16 R/B,1994-023B,2026-07-18T22:02:21.696288,14.15026285,.0001325,70.9990,155.2929,113.6291,246.4971,0,U,23088,999,66465,.16725458E-3,.276E-5,0
SL-16 R/B,1994-074B,2026-07-18T13:05:16.538784,14.79525915,.00074065,97.6986,224.9583,144.5054,8.1125,0,U,23343,999,70659,.27855453E-4,.159E-5,0
